{
  "type": "FeatureCollection",
  "features": [
    {
      "type": "Feature",
      "properties": {
        "norad_id": 41330,
        "name": "COSMOS 2514 (751)",
        "group": "gnss",
        "lat": 2.2390831593784264,
        "lon": 137.88528001555207,
        "alt_km": 19108.435129103895,
        "timestamp": "2025-12-26T08:37:54.823348+00:00",
        "meta_object_name": "COSMOS 2514 (751)",
        "meta_object_id": "2016-008A",
        "meta_epoch": "2025-12-26T03:04:27.973056",
        "meta_mean_motion": 2.13102553,
        "meta_eccentricity": 0.001154,
        "meta_inclination": 65.126,
        "meta_ra_of_asc_node": 318.9457,
        "meta_arg_of_pericenter": 220.0269,
        "meta_mean_anomaly": 139.8925,
        "meta_ephemeris_type": 0,
        "meta_classification_type": "U",
        "meta_norad_cat_id": 41330,
        "meta_element_set_no": 999,
        "meta_rev_at_epoch": 7693,
        "meta_bstar": 0,
        "meta_mean_motion_dot": -3.4e-07,
        "meta_mean_motion_ddot": 0,
        "tle_line1": "1 41330U 16008A   25360.12810154 -.00000034  00000+0  00000+0 0  9990",
        "tle_line2": "2 41330  65.1260 318.9457 0011540 220.0269 139.8925  2.13102553 76936"
      },
      "geometry": {
        "type": "Point",
        "coordinates": [
          137.88528001555207,
          2.2390831593784264
        ]
      }
    },
    {
      "type": "Feature",
      "properties": {
        "norad_id": 41384,
        "name": "IRNSS-1F",
        "group": "gnss",
        "lat": 1.974826792207335,
        "lon": -102.88802527481613,
        "alt_km": 35697.652258487855,
        "timestamp": "2025-12-26T08:37:54.823362+00:00",
        "meta_object_name": "IRNSS-1F",
        "meta_object_id": "2016-015A",
        "meta_epoch": "2025-12-24T23:31:33.658752",
        "meta_mean_motion": 1.00278532,
        "meta_eccentricity": 0.00226614,
        "meta_inclination": 4.9118,
        "meta_ra_of_asc_node": 100.9953,
        "meta_arg_of_pericenter": 182.2729,
        "meta_mean_anomaly": 195.8977,
        "meta_ephemeris_type": 0,
        "meta_classification_type": "U",
        "meta_norad_cat_id": 41384,
        "meta_element_set_no": 999,
        "meta_rev_at_epoch": 3592,
        "meta_bstar": 0,
        "meta_mean_motion_dot": 1.78e-06,
        "meta_mean_motion_ddot": 0,
        "tle_line1": "1 41384U 16015A   25358.98025068  .00000178  00000+0  00000+0 0  9998",
        "tle_line2": "2 41384   4.9118 100.9953 0022661 182.2729 195.8977  1.00278532 35923"
      },
      "geometry": {
        "type": "Point",
        "coordinates": [
          -102.88802527481613,
          1.974826792207335
        ]
      }
    },
    {
      "type": "Feature",
      "properties": {
        "norad_id": 41434,
        "name": "BEIDOU-2 IGSO-6 (C13)",
        "group": "gnss",
        "lat": -58.77994421328206,
        "lon": -32.65837412043675,
        "alt_km": 35615.824760514384,
        "timestamp": "2025-12-26T08:37:54.823376+00:00",
        "meta_object_name": "BEIDOU-2 IGSO-6 (C13)",
        "meta_object_id": "2016-021A",
        "meta_epoch": "2025-12-25T02:21:14.682240",
        "meta_mean_motion": 1.00290736,
        "meta_eccentricity": 0.00608236,
        "meta_inclination": 59.9818,
        "meta_ra_of_asc_node": 39.7747,
        "meta_arg_of_pericenter": 230.5129,
        "meta_mean_anomaly": 312.5474,
        "meta_ephemeris_type": 0,
        "meta_classification_type": "U",
        "meta_norad_cat_id": 41434,
        "meta_element_set_no": 999,
        "meta_rev_at_epoch": 3573,
        "meta_bstar": 0,
        "meta_mean_motion_dot": -1.35e-06,
        "meta_mean_motion_ddot": 0,
        "tle_line1": "1 41434U 16021A   25359.09808660 -.00000135  00000+0  00000+0 0  9995",
        "tle_line2": "2 41434  59.9818  39.7747 0060823 230.5129 312.5474  1.00290736 35738"
      },
      "geometry": {
        "type": "Point",
        "coordinates": [
          -32.65837412043675,
          -58.77994421328206
        ]
      }
    },
    {
      "type": "Feature",
      "properties": {
        "norad_id": 41469,
        "name": "IRNSS-1G",
        "group": "gnss",
        "lat": -4.55269748610581,
        "lon": -5.932267006481638,
        "alt_km": 35783.13441585135,
        "timestamp": "2025-12-26T08:37:54.823388+00:00",
        "meta_object_name": "IRNSS-1G",
        "meta_object_id": "2016-027A",
        "meta_epoch": "2025-12-25T22:20:51.595008",
        "meta_mean_motion": 1.0027347,
        "meta_eccentricity": 0.0002712,
        "meta_inclination": 4.7669,
        "meta_ra_of_asc_node": 101.7607,
        "meta_arg_of_pericenter": 326.3012,
        "meta_mean_anomaly": 131.4056,
        "meta_ephemeris_type": 0,
        "meta_classification_type": "U",
        "meta_norad_cat_id": 41469,
        "meta_element_set_no": 999,
        "meta_rev_at_epoch": 3544,
        "meta_bstar": 0,
        "meta_mean_motion_dot": -3.14e-06,
        "meta_mean_motion_ddot": 0,
        "tle_line1": "1 41469U 16027A   25359.93115272 -.00000314  00000+0  00000+0 0  9991",
        "tle_line2": "2 41469   4.7669 101.7607 0002712 326.3012 131.4056  1.00273470 35449"
      },
      "geometry": {
        "type": "Point",
        "coordinates": [
          -5.932267006481638,
          -4.55269748610581
        ]
      }
    },
    {
      "type": "Feature",
      "properties": {
        "norad_id": 41549,
        "name": "GSAT0211 (GALILEO 14)",
        "group": "gnss",
        "lat": 9.457603846448109,
        "lon": -126.8743522830827,
        "alt_km": 23209.49863782345,
        "timestamp": "2025-12-26T08:37:54.823399+00:00",
        "meta_object_name": "GSAT0211 (GALILEO 14)",
        "meta_object_id": "2016-030A",
        "meta_epoch": "2025-12-25T18:06:09.127584",
        "meta_mean_motion": 1.70473226,
        "meta_eccentricity": 0.0003991,
        "meta_inclination": 55.1481,
        "meta_ra_of_asc_node": 226.465,
        "meta_arg_of_pericenter": 16.0221,
        "meta_mean_anomaly": 344.0794,
        "meta_ephemeris_type": 0,
        "meta_classification_type": "U",
        "meta_norad_cat_id": 41549,
        "meta_element_set_no": 999,
        "meta_rev_at_epoch": 5971,
        "meta_bstar": 0,
        "meta_mean_motion_dot": 7e-07,
        "meta_mean_motion_ddot": 0,
        "tle_line1": "1 41549U 16030A   25359.75427231  .00000070  00000+0  00000+0 0  9993",
        "tle_line2": "2 41549  55.1481 226.4650 0003991  16.0221 344.0794  1.70473226 59713"
      },
      "geometry": {
        "type": "Point",
        "coordinates": [
          -126.8743522830827,
          9.457603846448109
        ]
      }
    },
    {
      "type": "Feature",
      "properties": {
        "norad_id": 41550,
        "name": "GSAT0210 (GALILEO 13)",
        "group": "gnss",
        "lat": -27.017475386806968,
        "lon": 67.26663016712767,
        "alt_km": 23224.443222534213,
        "timestamp": "2025-12-26T08:37:54.823410+00:00",
        "meta_object_name": "GSAT0210 (GALILEO 13)",
        "meta_object_id": "2016-030B",
        "meta_epoch": "2025-12-24T20:07:27.603552",
        "meta_mean_motion": 1.70473396,
        "meta_eccentricity": 5.683e-05,
        "meta_inclination": 55.1478,
        "meta_ra_of_asc_node": 226.4883,
        "meta_arg_of_pericenter": 175.0994,
        "meta_mean_anomaly": 184.9941,
        "meta_ephemeris_type": 0,
        "meta_classification_type": "U",
        "meta_norad_cat_id": 41550,
        "meta_element_set_no": 999,
        "meta_rev_at_epoch": 5969,
        "meta_bstar": 0,
        "meta_mean_motion_dot": 7.1e-07,
        "meta_mean_motion_ddot": 0,
        "tle_line1": "1 41550U 16030B   25358.83851393  .00000071  00000+0  00000+0 0  9994",
        "tle_line2": "2 41550  55.1478 226.4883 0000568 175.0994 184.9941  1.70473396 59699"
      },
      "geometry": {
        "type": "Point",
        "coordinates": [
          67.26663016712767,
          -27.017475386806968
        ]
      }
    },
    {
      "type": "Feature",
      "properties": {
        "norad_id": 41586,
        "name": "BEIDOU-2 G7 (C03)",
        "group": "gnss",
        "lat": -1.797718644347408,
        "lon": -25.069683887171255,
        "alt_km": 35788.84755031409,
        "timestamp": "2025-12-26T08:37:54.823421+00:00",
        "meta_object_name": "BEIDOU-2 G7 (C03)",
        "meta_object_id": "2016-037A",
        "meta_epoch": "2025-12-26T01:34:23.900160",
        "meta_mean_motion": 1.00268103,
        "meta_eccentricity": 0.0005179,
        "meta_inclination": 1.7875,
        "meta_ra_of_asc_node": 67.9034,
        "meta_arg_of_pericenter": 0.6616,
        "meta_mean_anomaly": 160.2669,
        "meta_ephemeris_type": 0,
        "meta_classification_type": "U",
        "meta_norad_cat_id": 41586,
        "meta_element_set_no": 999,
        "meta_rev_at_epoch": 515,
        "meta_bstar": 0,
        "meta_mean_motion_dot": -3.32e-06,
        "meta_mean_motion_ddot": 0,
        "tle_line1": "1 41586U 16037A   25360.06555440 -.00000332  00000+0  00000+0 0  9993",
        "tle_line2": "2 41586   1.7875  67.9034 0005179   0.6616 160.2669  1.00268103  5156"
      },
      "geometry": {
        "type": "Point",
        "coordinates": [
          -25.069683887171255,
          -1.797718644347408
        ]
      }
    }
  ]
}